EUTELSAT HOTBIRD 13C    
1 33459U 08065A   26204.53102476 -.00000281  00000+0  00000+0 0  9995
2 33459   3.0409  78.7586 0003301  42.5543 320.7841  1.00274590 47715
EXPRESS-AM44            
1 33595U 09007A   26204.32498175 -.00000088  00000+0  00000+0 0  9999
2 33595   3.5541  77.9526 0004004  33.9055 295.1666  1.00271995 52640
NSS-9                   
1 33749U 09008A   26204.50597796  .00000075  00000+0  00000+0 0  9995
2 33749   1.3528  82.2991 0002419  24.8099 199.3363  1.00271757 63885
TELSTAR 11N             
1 34111U 09009A   26204.39104271 -.00000246  00000+0  00000+0 0  9990
2 34111   0.0586 256.3472 0002578 213.4867 294.5144  1.00271704 46600
WGS F2 (USA 204)        
1 34713U 09017A   26204.20461279  .00000072  00000+0  00000+0 0  9997
2 34713   0.0153  65.2749 0000488  54.9472 311.8851  1.00274143 45977
SES-7 (PROTOSTAR 2)     
1 34941U 09027A   26204.56242497 -.00000340  00000+0  00000+0 0  9998
2 34941   0.0090  39.0567 0001412 150.2020  62.7289  1.00270025 62997
MEASAT-3A               
1 35362U 09032A   26204.49619794 -.00000106  00000+0  00000+0 0  9992
2 35362   0.0214  10.5136 0002970 100.4700 168.8745  1.00272584  8392
EWS-G3 (GOES 14)        
1 35491U 09033A   26204.54211512 -.00000355  00000+0  00000+0 0  9994
2 35491   1.7807  82.5909 0002258  39.6383 134.0042  1.00094475  6953
FM-5                    
1 35493U 09034A   26204.02496500 -.00000195  00000+0  00000+0 0  9994
2 35493   0.0406 259.5463 0000846 130.3836 193.6336  1.00269883 47001
TERRESTAR-1             
1 35496U 09035A   26204.51906470 -.00000056  00000+0  00000+0 0  9990
2 35496   5.1942  48.7589 0002535  68.6489 259.7121  1.00273266 62492
ASIASAT 5               
1 35696U 09042A   26203.13933537 -.00000304  00000+0  00000+0 0  9997
2 35696   0.0135  49.1374 0001278  47.9625 353.4809  1.00271191 62067
JCSAT-12 (JCSAT-RA)     
1 35755U 09044A   26204.53656027 -.00000323  00000+0  00000+0 0  9997
2 35755   0.0380 275.4405 0000552 262.1211  88.9152  1.00272059 61974
OPTUS D3                
1 35756U 09044B   26204.42937988 -.00000140  00000+0  00000+0 0  9991
2 35756   0.8958 268.1534 0003558 212.5093 131.2040  1.00273000 61922
NIMIQ 5                 
1 35873U 09050A   26204.52660473 -.00000252  00000+0  00000+0 0  9995
2 35873   0.0607 257.2710 0002931 213.9662 306.9005  1.00271734 61701
AMAZONAS 2              
1 35942U 09054A   26204.52677807 -.00000256  00000+0  00000+0 0  9999
2 35942   1.9067  82.5823 0003480  34.5730 301.7539  1.00272116 61547
COMSATBW-1              
1 35943U 09054B   26204.41097613  .00000029  00000+0  00000+0 0  9996
2 35943   0.0674 150.2642 0002998 331.3909  30.4426  1.00272726 61675
NSS-12                  
1 36032U 09058A   26204.40967612  .00000076  00000+0  00000+0 0  9996
2 36032   0.0729 268.4942 0004930 176.1840  60.9533  1.00274244 61289
THOR 6                  
1 36033U 09058B   26204.32697509 -.00000005  00000+0  00000+0 0  9996
2 36033   0.0410 238.0898 0002020 251.8022 288.0386  1.00272887 61360
INTELSAT 14 (IS-14)     
1 36097U 09064A   26204.31822171 -.00000269  00000+0  00000+0 0  9999
2 36097   0.0162  55.0276 0002580  69.6567 245.9187  1.00271107 60961
EUTELSAT 36B            
1 36101U 09065A   26204.55104485  .00000116  00000+0  00000+0 0  9993
2 36101   0.5799  81.3619 0005792  37.1238  71.6544  1.00272894 61072
INTELSAT 15 (IS-15)     
1 36106U 09067A   26204.55791828 -.00000180  00000+0  00000+0 0  9995
2 36106   0.0143  56.0874 0002414  65.1504 106.0515  1.00272108 41596
WGS F3 (USA 211)        
1 36108U 09068A   26204.24017123  .00000069  00000+0  00000+0 0  9998
2 36108   0.2926  85.6868 0000490  46.9421 124.7904  1.00269910 46958
DIRECTV 12              
1 36131U 09075A   26204.51897575 -.00000099  00000+0  00000+0 0  9993
2 36131   0.0137 229.6425 0000220 313.0373 202.6779  1.00271917 46912
BEIDOU-2 G1             
1 36287U 10001A   26204.56883832 -.00000279  00000+0  00000+0 0  9992
2 36287   4.3769  60.2811 0001650 299.4361 286.8013  1.00269940 60534
SDO                     
1 36395U 10005A   26204.18438020 -.00000101  00000+0  00000+0 0  9993
2 36395  34.7238  85.7942 0001577  45.7486 133.6301  1.00277674 60427
INTELSAT 16 (IS-16)     
1 36397U 10006A   26204.52591140 -.00000240  00000+0  00000+0 0  9991
2 36397   0.0115   8.6789 0002141 110.1026 295.6033  1.00272178 60017
EWS-G2 (GOES 15)        
1 36411U 10008A   26204.41097613  .00000026  00000+0  00000+0 0  9995
2 36411   1.3750  82.3693 0005658  52.8208  17.1477  1.00272364 60001
ECHOSTAR 14             
1 36499U 10010A   26204.51750469  .00000000  00000+0  00000+0 0  9992
2 36499   0.0225  55.3778 0002170  56.6071 256.6803  1.00272652 46917
SES-1                   
1 36516U 10016A   26204.52178620 -.00000110  00000+0  00000+0 0  9995
2 36516   0.0475 274.0872 0002713 201.3093 272.6990  1.00272251 59391
ASTRA 3B                
1 36581U 10021A   26204.54567149  .00000140  00000+0  00000+0 0  9995
2 36581   1.5601  83.1001 0004195  29.9838  48.1410  1.00273975 59230
COMSATBW-2              
1 36582U 10021B   26204.54367815  .00000093  00000+0  00000+0 0  9991
2 36582   0.0420 144.8072 0002479 344.8736  20.5009  1.00270933 59325
BEIDOU-2 G3             
1 36590U 10024A   26204.62807992 -.00000134  00000+0  00000+0 0  9994
2 36590   4.6002  61.3461 0007302 359.6132 186.0838  1.00273698 59137
