OBJECT_NAME,OBJECT_ID,EPOCH,MEAN_MOTION,ECCENTRICITY,INCLINATION,RA_OF_ASC_NODE,ARG_OF_PERICENTER,MEAN_ANOMALY,EPHEMERIS_TYPE,CLASSIFICATION_TYPE,NORAD_CAT_ID,ELEMENT_SET_NO,REV_AT_EPOCH,BSTAR,MEAN_MOTION_DOT,MEAN_MOTION_DDOT
EUTELSAT HOTBIRD 13C,2008-065A,2026-07-23T12:44:40.539264,1.00274590,.00033012,3.0409,78.7586,42.5543,320.7841,0,U,33459,999,4771,0,-.281E-5,0
EXPRESS-AM44,2009-007A,2026-07-23T07:47:58.423200,1.00271995,.00040045,3.5541,77.9526,33.9055,295.1666,0,U,33595,999,5264,0,-.88E-6,0
NSS-9,2009-008A,2026-07-23T12:08:36.495744,1.00271757,.0002419,1.3528,82.2991,24.8099,199.3363,0,U,33749,999,6388,0,.75E-6,0
TELSTAR 11N,2009-009A,2026-07-23T09:23:06.090144,1.00271704,.00025788,0.0586,256.3472,213.4867,294.5144,0,U,34111,999,4660,0,-.246E-5,0
WGS F2 (USA 204),2009-017A,2026-07-23T04:54:38.545056,1.00274143,.00004886,0.0153,65.2749,54.9472,311.8851,0,U,34713,999,4597,0,.72E-6,0
SES-7 (PROTOSTAR 2),2009-027A,2026-07-23T13:29:53.517408,1.00270025,.00014126,0.0090,39.0567,150.2020,62.7289,0,U,34941,999,6299,0,-.34E-5,0
MEASAT-3A,2009-032A,2026-07-23T11:54:31.502016,1.00272584,.00029707,0.0214,10.5136,100.4700,168.8745,0,U,35362,999,839,0,-.106E-5,0
EWS-G3 (GOES 14),2009-033A,2026-07-23T13:00:38.746368,1.00094475,.00022583,1.7807,82.5909,39.6383,134.0042,0,U,35491,999,695,0,-.355E-5,0
FM-5,2009-034A,2026-07-23T00:35:56.976000,1.00269883,.00008464,0.0406,259.5463,130.3836,193.6336,0,U,35493,999,4700,0,-.195E-5,0
TERRESTAR-1,2009-035A,2026-07-23T12:27:27.190080,1.00273266,.00025356,5.1942,48.7589,68.6489,259.7121,0,U,35496,999,6249,0,-.56E-6,0
ASIASAT 5,2009-042A,2026-07-22T03:20:38.575968,1.00271191,.00012789,0.0135,49.1374,47.9625,353.4809,0,U,35696,999,6206,0,-.304E-5,0
JCSAT-12 (JCSAT-RA),2009-044A,2026-07-23T12:52:38.807328,1.00272059,.00005526,0.0380,275.4405,262.1211,88.9152,0,U,35755,999,6197,0,-.323E-5,0
OPTUS D3,2009-044B,2026-07-23T10:18:18.421632,1.00273000,.00035581,0.8958,268.1534,212.5093,131.2040,0,U,35756,999,6192,0,-.14E-5,0
NIMIQ 5,2009-050A,2026-07-23T12:38:18.648672,1.00271734,.00029314,0.0607,257.2710,213.9662,306.9005,0,U,35873,999,6170,0,-.252E-5,0
AMAZONAS 2,2009-054A,2026-07-23T12:38:33.625248,1.00272116,.00034805,1.9067,82.5823,34.5730,301.7539,0,U,35942,999,6154,0,-.256E-5,0
COMSATBW-1,2009-054B,2026-07-23T09:51:48.337632,1.00272726,.00029989,0.0674,150.2642,331.3909,30.4426,0,U,35943,999,6167,0,.29E-6,0
NSS-12,2009-058A,2026-07-23T09:49:56.016768,1.00274244,.00049301,0.0729,268.4942,176.1840,60.9533,0,U,36032,999,6128,0,.76E-6,0
THOR 6,2009-058B,2026-07-23T07:50:50.647776,1.00272887,.00020203,0.0410,238.0898,251.8022,288.0386,0,U,36033,999,6136,0,-.5E-7,0
INTELSAT 14 (IS-14),2009-064A,2026-07-23T07:38:14.355744,1.00271107,.00025808,0.0162,55.0276,69.6567,245.9187,0,U,36097,999,6096,0,-.269E-5,0
EUTELSAT 36B,2009-065A,2026-07-23T13:13:30.275040,1.00272894,.00057921,0.5799,81.3619,37.1238,71.6544,0,U,36101,999,6107,0,.116E-5,0
INTELSAT 15 (IS-15),2009-067A,2026-07-23T13:23:24.139392,1.00272108,.0002414,0.0143,56.0874,65.1504,106.0515,0,U,36106,999,4159,0,-.18E-5,0
WGS F3 (USA 211),2009-068A,2026-07-23T05:45:50.794272,1.00269910,.00004909,0.2926,85.6868,46.9421,124.7904,0,U,36108,999,4695,0,.69E-6,0
DIRECTV 12,2009-075A,2026-07-23T12:27:19.504800,1.00271917,.00002206,0.0137,229.6425,313.0373,202.6779,0,U,36131,999,4691,0,-.99E-6,0
BEIDOU-2 G1,2010-001A,2026-07-23T13:39:07.630848,1.00269940,.00016508,4.3769,60.2811,299.4361,286.8013,0,U,36287,999,6053,0,-.279E-5,0
SDO,2010-005A,2026-07-23T04:25:30.449280,1.00277674,.00015772,34.7238,85.7942,45.7486,133.6301,0,U,36395,999,6042,0,-.101E-5,0
INTELSAT 16 (IS-16),2010-006A,2026-07-23T12:37:18.744960,1.00272178,.00021415,0.0115,8.6789,110.1026,295.6033,0,U,36397,999,6001,0,-.24E-5,0
EWS-G2 (GOES 15),2010-008A,2026-07-23T09:51:48.337632,1.00272364,.00056588,1.3750,82.3693,52.8208,17.1477,0,U,36411,999,6000,0,.26E-6,0
ECHOSTAR 14,2010-010A,2026-07-23T12:25:12.405216,1.00272652,.00021706,0.0225,55.3778,56.6071,256.6803,0,U,36499,999,4691,0,0,0
SES-1,2010-016A,2026-07-23T12:31:22.327680,1.00272251,.00027136,0.0475,274.0872,201.3093,272.6990,0,U,36516,999,5939,0,-.11E-5,0
ASTRA 3B,2010-021A,2026-07-23T13:05:46.016736,1.00273975,.00041952,1.5601,83.1001,29.9838,48.1410,0,U,36581,999,5923,0,.14E-5,0
COMSATBW-2,2010-021B,2026-07-23T13:02:53.792160,1.00270933,.00024793,0.0420,144.8072,344.8736,20.5009,0,U,36582,999,5932,0,.93E-6,0
BEIDOU-2 G3,2010-024A,2026-07-23T15:04:26.105088,1.00273698,.00073024,4.6002,61.3461,359.6132,186.0838,0,U,36590,999,5913,0,-.134E-5,0
